{"fetched_at":"2026-07-23T17:55:52.583Z","source":"https://celestrak.org/NORAD/elements/gp.php?NAME=SPACEMOBILE&FORMAT=JSON","constellation":"ast-spacemobile","records":[{"OBJECT_NAME":"SPACEMOBILE-003","OBJECT_ID":"2024-163A","EPOCH":"2026-07-23T00:49:19.736544","CLASSIFICATION_TYPE":"U","MEAN_MOTION":15.20673687,"ECCENTRICITY":0.00035967,"INCLINATION":52.9686,"RA_OF_ASC_NODE":144.5962,"ARG_OF_PERICENTER":220.2566,"MEAN_ANOMALY":139.8162,"EPHEMERIS_TYPE":0,"NORAD_CAT_ID":61045,"ELEMENT_SET_NO":999,"REV_AT_EPOCH":10322,"BSTAR":0.0001267806,"MEAN_MOTION_DOT":0.00002495,"MEAN_MOTION_DDOT":0},{"OBJECT_NAME":"SPACEMOBILE-005","OBJECT_ID":"2024-163B","EPOCH":"2026-07-23T05:09:29.939904","CLASSIFICATION_TYPE":"U","MEAN_MOTION":15.20624425,"ECCENTRICITY":0.0008301,"INCLINATION":52.974,"RA_OF_ASC_NODE":143.7232,"ARG_OF_PERICENTER":219.1098,"MEAN_ANOMALY":140.9297,"EPHEMERIS_TYPE":0,"NORAD_CAT_ID":61046,"ELEMENT_SET_NO":999,"REV_AT_EPOCH":10324,"BSTAR":0.000082556555,"MEAN_MOTION_DOT":0.00001507,"MEAN_MOTION_DDOT":0},{"OBJECT_NAME":"SPACEMOBILE-001","OBJECT_ID":"2024-163C","EPOCH":"2026-07-23T05:07:00.750432","CLASSIFICATION_TYPE":"U","MEAN_MOTION":15.20678489,"ECCENTRICITY":0.00067452,"INCLINATION":52.9699,"RA_OF_ASC_NODE":143.4348,"ARG_OF_PERICENTER":217.442,"MEAN_ANOMALY":142.6105,"EPHEMERIS_TYPE":0,"NORAD_CAT_ID":61047,"ELEMENT_SET_NO":999,"REV_AT_EPOCH":10324,"BSTAR":0.000033608687,"MEAN_MOTION_DOT":0.0000042,"MEAN_MOTION_DDOT":0},{"OBJECT_NAME":"SPACEMOBILE-002","OBJECT_ID":"2024-163D","EPOCH":"2026-07-23T01:35:18.500640","CLASSIFICATION_TYPE":"U","MEAN_MOTION":15.20478362,"ECCENTRICITY":0.00047835,"INCLINATION":52.9773,"RA_OF_ASC_NODE":144.1623,"ARG_OF_PERICENTER":212.6215,"MEAN_ANOMALY":147.4484,"EPHEMERIS_TYPE":0,"NORAD_CAT_ID":61048,"ELEMENT_SET_NO":999,"REV_AT_EPOCH":10322,"BSTAR":0.0010166567,"MEAN_MOTION_DOT":0.00022234,"MEAN_MOTION_DDOT":0},{"OBJECT_NAME":"SPACEMOBILE-004","OBJECT_ID":"2024-163E","EPOCH":"2026-07-23T02:44:04.345152","CLASSIFICATION_TYPE":"U","MEAN_MOTION":15.2062699,"ECCENTRICITY":0.00052574,"INCLINATION":52.9731,"RA_OF_ASC_NODE":143.7101,"ARG_OF_PERICENTER":250.7696,"MEAN_ANOMALY":109.273,"EPHEMERIS_TYPE":0,"NORAD_CAT_ID":61049,"ELEMENT_SET_NO":999,"REV_AT_EPOCH":10323,"BSTAR":0.00096977201,"MEAN_MOTION_DOT":0.00021285,"MEAN_MOTION_DDOT":0},{"OBJECT_NAME":"SPACEMOBILE-006","OBJECT_ID":"2025-309A","EPOCH":"2026-07-23T04:10:23.804832","CLASSIFICATION_TYPE":"U","MEAN_MOTION":15.18691485,"ECCENTRICITY":0.00094634,"INCLINATION":52.9956,"RA_OF_ASC_NODE":166.7813,"ARG_OF_PERICENTER":242.7348,"MEAN_ANOMALY":117.2682,"EPHEMERIS_TYPE":0,"NORAD_CAT_ID":67232,"ELEMENT_SET_NO":999,"REV_AT_EPOCH":3206,"BSTAR":0.00015555894,"MEAN_MOTION_DOT":0.00002949,"MEAN_MOTION_DDOT":0},{"OBJECT_NAME":"SPACEMOBILE-008","OBJECT_ID":"2026-139A","EPOCH":"2026-07-23T03:31:17.627520","CLASSIFICATION_TYPE":"U","MEAN_MOTION":15.12815414,"ECCENTRICITY":0.00053911,"INCLINATION":52.9952,"RA_OF_ASC_NODE":99.3063,"ARG_OF_PERICENTER":74.0305,"MEAN_ANOMALY":286.1279,"EPHEMERIS_TYPE":0,"NORAD_CAT_ID":69589,"ELEMENT_SET_NO":999,"REV_AT_EPOCH":542,"BSTAR":0.000052209587,"MEAN_MOTION_DOT":0.00000626,"MEAN_MOTION_DDOT":0},{"OBJECT_NAME":"SPACEMOBILE-009","OBJECT_ID":"2026-139B","EPOCH":"2026-07-23T01:59:46.129056","CLASSIFICATION_TYPE":"U","MEAN_MOTION":15.12715669,"ECCENTRICITY":0.00056049,"INCLINATION":52.9945,"RA_OF_ASC_NODE":99.616,"ARG_OF_PERICENTER":71.6496,"MEAN_ANOMALY":288.5104,"EPHEMERIS_TYPE":0,"NORAD_CAT_ID":69590,"ELEMENT_SET_NO":999,"REV_AT_EPOCH":541,"BSTAR":0.000089615233,"MEAN_MOTION_DOT":0.00001287,"MEAN_MOTION_DDOT":0},{"OBJECT_NAME":"SPACEMOBILE-010","OBJECT_ID":"2026-139C","EPOCH":"2026-07-23T02:05:28.863168","CLASSIFICATION_TYPE":"U","MEAN_MOTION":15.12552732,"ECCENTRICITY":0.00056174,"INCLINATION":52.9951,"RA_OF_ASC_NODE":99.6437,"ARG_OF_PERICENTER":64.2078,"MEAN_ANOMALY":295.9492,"EPHEMERIS_TYPE":0,"NORAD_CAT_ID":69591,"ELEMENT_SET_NO":999,"REV_AT_EPOCH":542,"BSTAR":0.000091550673,"MEAN_MOTION_DOT":0.00001314,"MEAN_MOTION_DDOT":0}]}
